start=new Date('2022-11-20T00:00:00.000Z').valueOf();
sats=[{"TLE_LINE2":"2 52667  53.2166 169.8515 0001869  50.3205 309.7952 15.08846382 28926","NORAD_CAT_ID":"52667","BSTAR":"0.00016574000000","EPOCH":"2022-11-19T07:03:13.682304","APOAPSIS":"541.019","ELEMENT_SET_NO":"999","RCS_SIZE":"LARGE","GP_ID":"218206226","MEAN_ELEMENT_THEORY":"SGP4","DECAY_DATE":null,"OBJECT_ID":"2022-053M","REV_AT_EPOCH":"2892","COUNTRY_CODE":"US","MEAN_ANOMALY":"309.7952","MEAN_MOTION_DDOT":"0.0000000000000","RA_OF_ASC_NODE":"169.8515","CLASSIFICATION_TYPE":"U","MEAN_MOTION":"15.08846382","ARG_OF_PERICENTER":"50.3205","OBJECT_NAME":"STARLINK-4076","PERIAPSIS":"538.433","PERIOD":"95.437","SEMIMAJOR_AXIS":"6917.861","EPHEMERIS_TYPE":"0","OBJECT_TYPE":"PAYLOAD","TIME_SYSTEM":"UTC","INCLINATION":"53.2166","ECCENTRICITY":"0.00018690","REF_FRAME":"TEME","SITE":"AFETR","CENTER_NAME":"EARTH","MEAN_MOTION_DOT":"0.00002351","LAUNCH_DATE":"2022-05-18","FILE":"3663316","TLE_LINE1":"1 52667U 22053M   22323.29390836  .00002351  00000-0  16574-3 0  9997"},{"MEAN_MOTION_DDOT":"0.0000000000000","ARG_OF_PERICENTER":"39.3873","MEAN_MOTION":"15.08840015","RA_OF_ASC_NODE":"167.4415","CLASSIFICATION_TYPE":"U","ELEMENT_SET_NO":"999","TLE_LINE2":"2 52668  53.2157 167.4415 0002436  39.3873 320.7296 15.08840015 29000","APOAPSIS":"541.431","EPOCH":"2022-11-19T19:56:55.503744","BSTAR":"0.00008733600000","NORAD_CAT_ID":"52668","COUNTRY_CODE":"US","MEAN_ANOMALY":"320.7296","MEAN_ELEMENT_THEORY":"SGP4","GP_ID":"218238838","RCS_SIZE":"LARGE","REV_AT_EPOCH":"2900","DECAY_DATE":null,"OBJECT_ID":"2022-053N","MEAN_MOTION_DOT":"0.00001102","CENTER_NAME":"EARTH","SITE":"AFETR","FILE":"3663561","TLE_LINE1":"1 52668U 22053N   22323.83119796  .00001102  00000-0  87336-4 0  9990","LAUNCH_DATE":"2022-05-18","PERIOD":"95.438","SEMIMAJOR_AXIS":"6917.880","EPHEMERIS_TYPE":"0","OBJECT_NAME":"STARLINK-4067","PERIAPSIS":"538.060","INCLINATION":"53.2157","REF_FRAME":"TEME","ECCENTRICITY":"0.00024360","OBJECT_TYPE":"PAYLOAD","TIME_SYSTEM":"UTC"},{"RCS_SIZE":"MEDIUM","MEAN_ELEMENT_THEORY":"SGP4","GP_ID":"218236746","OBJECT_ID":"2022-053P","DECAY_DATE":null,"REV_AT_EPOCH":"2896","COUNTRY_CODE":"US","MEAN_ANOMALY":"315.0588","TLE_LINE2":"2 52669  53.2166 168.4188 0002253  45.0587 315.0588 15.08835169 28961","NORAD_CAT_ID":"52669","BSTAR":"0.00005767400000","APOAPSIS":"541.319","EPOCH":"2022-11-19T14:44:16.769472","ELEMENT_SET_NO":"999","RA_OF_ASC_NODE":"168.4188","CLASSIFICATION_TYPE":"U","MEAN_MOTION":"15.08835169","ARG_OF_PERICENTER":"45.0587","MEAN_MOTION_DDOT":"0.0000000000000","OBJECT_TYPE":"PAYLOAD","TIME_SYSTEM":"UTC","INCLINATION":"53.2166","ECCENTRICITY":"0.00022530","REF_FRAME":"TEME","OBJECT_NAME":"STARLINK-3972","PERIAPSIS":"538.202","PERIOD":"95.438","SEMIMAJOR_AXIS":"6917.895","EPHEMERIS_TYPE":"0","LAUNCH_DATE":"2022-05-18","FILE":"3663561","TLE_LINE1":"1 52669U 22053P   22323.61408298  .00000630  00000-0  57674-4 0  9992","SITE":"AFETR","MEAN_MOTION_DOT":"0.00000630","CENTER_NAME":"EARTH"},{"TLE_LINE2":"2 52670  53.2164 169.8312 0002423  37.1036 323.0123 15.08836311 28925","BSTAR":"0.00006868500000","NORAD_CAT_ID":"52670","APOAPSIS":"541.433","EPOCH":"2022-11-19T07:09:55.347264","ELEMENT_SET_NO":"999","RCS_SIZE":"LARGE","MEAN_ELEMENT_THEORY":"SGP4","GP_ID":"218206475","DECAY_DATE":null,"OBJECT_ID":"2022-053Q","REV_AT_EPOCH":"2892","COUNTRY_CODE":"US","MEAN_ANOMALY":"323.0123","MEAN_MOTION_DDOT":"0.0000000000000","RA_OF_ASC_NODE":"169.8312","CLASSIFICATION_TYPE":"U","MEAN_MOTION":"15.08836311","ARG_OF_PERICENTER":"37.1036","OBJECT_NAME":"STARLINK-4075","PERIAPSIS":"538.080","PERIOD":"95.438","SEMIMAJOR_AXIS":"6917.892","EPHEMERIS_TYPE":"0","OBJECT_TYPE":"PAYLOAD","TIME_SYSTEM":"UTC","INCLINATION":"53.2164","ECCENTRICITY":"0.00024230","REF_FRAME":"TEME","SITE":"AFETR","MEAN_MOTION_DOT":"0.00000805","CENTER_NAME":"EARTH","LAUNCH_DATE":"2022-05-18","FILE":"3663316","TLE_LINE1":"1 52670U 22053Q   22323.29855726  .00000805  00000-0  68685-4 0  9998"},{"REV_AT_EPOCH":"2900","OBJECT_ID":"2022-053R","DECAY_DATE":null,"GP_ID":"218238238","MEAN_ELEMENT_THEORY":"SGP4","RCS_SIZE":"LARGE","MEAN_ANOMALY":"309.6749","COUNTRY_CODE":"US","EPOCH":"2022-11-19T21:00:30.381696","APOAPSIS":"541.263","BSTAR":"0.00030161000000","NORAD_CAT_ID":"52671","TLE_LINE2":"2 52671  53.2152 167.2399 0002255  50.4442 309.6749 15.08853748 29009","ELEMENT_SET_NO":"999","CLASSIFICATION_TYPE":"U","RA_OF_ASC_NODE":"167.2399","ARG_OF_PERICENTER":"50.4442","MEAN_MOTION":"15.08853748","MEAN_MOTION_DDOT":"0.0000000000000","TIME_SYSTEM":"UTC","OBJECT_TYPE":"PAYLOAD","REF_FRAME":"TEME","ECCENTRICITY":"0.00022550","INCLINATION":"53.2152","PERIAPSIS":"538.143","OBJECT_NAME":"STARLINK-4071","SEMIMAJOR_AXIS":"6917.838","EPHEMERIS_TYPE":"0","PERIOD":"95.437","LAUNCH_DATE":"2022-05-18","TLE_LINE1":"1 52671U 22053R   22323.87535164  .00004517  00000-0  30161-3 0  9995","FILE":"3663561","SITE":"AFETR","MEAN_MOTION_DOT":"0.00004517","CENTER_NAME":"EARTH"},{"MEAN_ANOMALY":"318.6695","COUNTRY_CODE":"US","REV_AT_EPOCH":"2895","DECAY_DATE":null,"OBJECT_ID":"2022-053S","MEAN_ELEMENT_THEORY":"SGP4","GP_ID":"218238495","RCS_SIZE":"LARGE","ELEMENT_SET_NO":"999","APOAPSIS":"541.253","EPOCH":"2022-11-19T13:19:29.561664","NORAD_CAT_ID":"52672","BSTAR":"0.00010345000000","TLE_LINE2":"2 52672  53.2163 168.6786 0002163  41.4461 318.6695 15.08836388 28950","ARG_OF_PERICENTER":"41.4461","MEAN_MOTION":"15.08836388","CLASSIFICATION_TYPE":"U","RA_OF_ASC_NODE":"168.6786","MEAN_MOTION_DDOT":"0.0000000000000","REF_FRAME":"TEME","ECCENTRICITY":"0.00021630","INCLINATION":"53.2163","TIME_SYSTEM":"UTC","OBJECT_TYPE":"PAYLOAD","SEMIMAJOR_AXIS":"6917.891","EPHEMERIS_TYPE":"0","PERIOD":"95.438","PERIAPSIS":"538.260","OBJECT_NAME":"STARLINK-4073","TLE_LINE1":"1 52672U 22053S   22323.55520326  .00001358  00000-0  10345-3 0  9997","FILE":"3663561","LAUNCH_DATE":"2022-05-18","CENTER_NAME":"EARTH","MEAN_MOTION_DOT":"0.00001358","SITE":"AFETR"},{"LAUNCH_DATE":"2022-05-18","FILE":"3663561","TLE_LINE1":"1 52673U 22053T   22323.86799654  .00002570  00000-0  17952-3 0  9992","SITE":"AFETR","CENTER_NAME":"EARTH","MEAN_MOTION_DOT":"0.00002570","OBJECT_TYPE":"PAYLOAD","TIME_SYSTEM":"UTC","INCLINATION":"53.2177","REF_FRAME":"TEME","ECCENTRICITY":"0.00021830","OBJECT_NAME":"STARLINK-3976","PERIAPSIS":"538.237","PERIOD":"95.438","EPHEMERIS_TYPE":"0","SEMIMAJOR_AXIS":"6917.883","RA_OF_ASC_NODE":"167.2654","CLASSIFICATION_TYPE":"U","ARG_OF_PERICENTER":"36.7803","MEAN_MOTION":"15.08839260","MEAN_MOTION_DDOT":"0.0000000000000","MEAN_ELEMENT_THEORY":"SGP4","GP_ID":"218237246","RCS_SIZE":"LARGE","REV_AT_EPOCH":"2900","DECAY_DATE":null,"OBJECT_ID":"2022-053T","COUNTRY_CODE":"US","MEAN_ANOMALY":"323.3339","TLE_LINE2":"2 52673  53.2177 167.2654 0002183  36.7803 323.3339 15.08839260 29001","APOAPSIS":"541.258","EPOCH":"2022-11-19T20:49:54.901056","BSTAR":"0.00017952000000","NORAD_CAT_ID":"52673","ELEMENT_SET_NO":"999"},{"ARG_OF_PERICENTER":"45.6654","MEAN_MOTION":"15.08849925","RA_OF_ASC_NODE":"167.5037","CLASSIFICATION_TYPE":"U","MEAN_MOTION_DDOT":"0.0000000000000","COUNTRY_CODE":"US","MEAN_ANOMALY":"314.4544","MEAN_ELEMENT_THEORY":"SGP4","GP_ID":"218237497","RCS_SIZE":"LARGE","REV_AT_EPOCH":"2900","DECAY_DATE":null,"OBJECT_ID":"2022-053U","ELEMENT_SET_NO":"999","TLE_LINE2":"2 52674  53.2147 167.5037 0002510  45.6654 314.4544 15.08849925 29002","EPOCH":"2022-11-19T19:35:42.993312","APOAPSIS":"541.451","BSTAR":"0.00028323000000","NORAD_CAT_ID":"52674","FILE":"3663561","TLE_LINE1":"1 52674U 22053U   22323.81646983  .00004223  00000-0  28323-3 0  9995","LAUNCH_DATE":"2022-05-18","MEAN_MOTION_DOT":"0.00004223","CENTER_NAME":"EARTH","SITE":"AFETR","INCLINATION":"53.2147","REF_FRAME":"TEME","ECCENTRICITY":"0.00025100","OBJECT_TYPE":"PAYLOAD","TIME_SYSTEM":"UTC","PERIOD":"95.437","EPHEMERIS_TYPE":"0","SEMIMAJOR_AXIS":"6917.850","OBJECT_NAME":"STARLINK-3936","PERIAPSIS":"537.979"},{"LAUNCH_DATE":"2022-05-18","FILE":"3663561","TLE_LINE1":"1 52675U 22053V   22323.53403417  .00004638  00000-0  30922-3 0  9996","SITE":"AFETR","MEAN_MOTION_DOT":"0.00004638","CENTER_NAME":"EARTH","OBJECT_TYPE":"PAYLOAD","TIME_SYSTEM":"UTC","INCLINATION":"53.2142","ECCENTRICITY":"0.00023330","REF_FRAME":"TEME","OBJECT_NAME":"STARLINK-3934","PERIAPSIS":"538.092","PERIOD":"95.437","EPHEMERIS_TYPE":"0","SEMIMAJOR_AXIS":"6917.841","RA_OF_ASC_NODE":"158.7556","CLASSIFICATION_TYPE":"U","MEAN_MOTION":"15.08852801","ARG_OF_PERICENTER":"41.4469","MEAN_MOTION_DDOT":"0.0000000000000","RCS_SIZE":"LARGE","MEAN_ELEMENT_THEORY":"SGP4","GP_ID":"218237739","DECAY_DATE":null,"OBJECT_ID":"2022-053V","REV_AT_EPOCH":"2908","COUNTRY_CODE":"US","MEAN_ANOMALY":"318.6700","TLE_LINE2":"2 52675  53.2142 158.7556 0002333  41.4469 318.6700 15.08852801 29082","BSTAR":"0.00030922000000","NORAD_CAT_ID":"52675","EPOCH":"2022-11-19T12:49:00.552288","APOAPSIS":"541.320","ELEMENT_SET_NO":"999"},{"EPHEMERIS_TYPE":"0","SEMIMAJOR_AXIS":"6917.904","PERIOD":"95.438","PERIAPSIS":"538.182","OBJECT_NAME":"STARLINK-4006","ECCENTRICITY":"0.00022950","REF_FRAME":"TEME","INCLINATION":"53.2161","TIME_SYSTEM":"UTC","OBJECT_TYPE":"PAYLOAD","CENTER_NAME":"EARTH","MEAN_MOTION_DOT":"0.00000399","SITE":"AFETR","TLE_LINE1":"1 52676U 22053W   22323.87168210  .00000399  00000-0  43204-4 0  9991","FILE":"3663561","LAUNCH_DATE":"2022-05-18","ELEMENT_SET_NO":"999","NORAD_CAT_ID":"52676","BSTAR":"0.00004320400000","EPOCH":"2022-11-19T20:55:13.333440","APOAPSIS":"541.357","TLE_LINE2":"2 52676  53.2161 167.2551 0002295  47.8363 312.2824 15.08832219 29004","MEAN_ANOMALY":"312.2824","COUNTRY_CODE":"US","OBJECT_ID":"2022-053W","DECAY_DATE":null,"REV_AT_EPOCH":"2900","RCS_SIZE":"LARGE","GP_ID":"218238839","MEAN_ELEMENT_THEORY":"SGP4","MEAN_MOTION_DDOT":"0.0000000000000","MEAN_MOTION":"15.08832219","ARG_OF_PERICENTER":"47.8363","CLASSIFICATION_TYPE":"U","RA_OF_ASC_NODE":"167.2551"}];
